{"type": "FeatureCollection", "features": [ {"type": "Feature", "properties": {"norad_id": 65304, "name": "DRAGON CRS-33", "group": "stations", "lat": -47.81154808908194, "lon": 94.08120916186002, "alt_km": 421.72760863542953, "timestamp": "2025-12-10T04:57:28.381864+00:00", "meta": {"OBJECT_NAME": "DRAGON CRS-33", "OBJECT_ID": "2025-186A", "EPOCH": "2025-12-09T12:14:10.839552", "MEAN_MOTION": 15.49447168, "ECCENTRICITY": 0.00034, "INCLINATION": 51.631, "RA_OF_ASC_NODE": 158.4724, "ARG_OF_PERICENTER": 223.8185, "MEAN_ANOMALY": 136.2534, "EPHEMERIS_TYPE": 0, "CLASSIFICATION_TYPE": "U", "NORAD_CAT_ID": 65304, "ELEMENT_SET_NO": 999, "REV_AT_EPOCH": 11, "BSTAR": 0.00026025969, "MEAN_MOTION_DOT": 0.00014141, "MEAN_MOTION_DDOT": 0}, "tle": {"line1": "1 65304U 25186A   25343.50984768  .00014141  00000+0  26026-3 0  9993", "line2": "2 65304  51.6310 158.4724 0003400 223.8185 136.2534 15.49447168   118"}}, "geometry": {"type": "Point", "coordinates": [94.08120916186002, -47.81154808908194]}}, {"type": "Feature", "properties": {"norad_id": 65586, "name": "PROGRESS-MS 32", "group": "stations", "lat": -47.81154759787132, "lon": 94.08121093723678, "alt_km": 421.72760866615863, "timestamp": "2025-12-10T04:57:28.381884+00:00", "meta": {"OBJECT_NAME": "PROGRESS-MS 32", "OBJECT_ID": "2025-204A", "EPOCH": "2025-12-09T12:14:10.839552", "MEAN_MOTION": 15.49447168, "ECCENTRICITY": 0.00034, "INCLINATION": 51.631, "RA_OF_ASC_NODE": 158.4724, "ARG_OF_PERICENTER": 223.8185, "MEAN_ANOMALY": 136.2534, "EPHEMERIS_TYPE": 0, "CLASSIFICATION_TYPE": "U", "NORAD_CAT_ID": 65586, "ELEMENT_SET_NO": 999, "REV_AT_EPOCH": 27, "BSTAR": 0.00026025969, "MEAN_MOTION_DOT": 0.00014141, "MEAN_MOTION_DDOT": 0}, "tle": {"line1": "1 65586U 25204A   25343.50984768  .00014141  00000+0  26026-3 0  9996", "line2": "2 65586  51.6310 158.4724 0003400 223.8185 136.2534 15.49447168   277"}}, "geometry": {"type": "Point", "coordinates": [94.08121093723678, -47.81154759787132]}}, {"type": "Feature", "properties": {"norad_id": 65616, "name": "CYGNUS NG-23", "group": "stations", "lat": -47.811547352266615, "lon": 94.08121182492287, "alt_km": 421.7276086815209, "timestamp": "2025-12-10T04:57:28.381894+00:00", "meta": {"OBJECT_NAME": "CYGNUS NG-23", "OBJECT_ID": "2025-208A", "EPOCH": "2025-12-09T12:14:10.839552", "MEAN_MOTION": 15.49447168, "ECCENTRICITY": 0.00034, "INCLINATION": 51.631, "RA_OF_ASC_NODE": 158.4724, "ARG_OF_PERICENTER": 223.8185, "MEAN_ANOMALY": 136.2534, "EPHEMERIS_TYPE": 0, "CLASSIFICATION_TYPE": "U", "NORAD_CAT_ID": 65616, "ELEMENT_SET_NO": 999, "REV_AT_EPOCH": 22, "BSTAR": 0.00026025969, "MEAN_MOTION_DOT": 0.00014141, "MEAN_MOTION_DDOT": 0}, "tle": {"line1": "1 65616U 25208A   25343.50984768  .00014141  00000+0  26026-3 0  9994", "line2": "2 65616  51.6310 158.4724 0003400 223.8185 136.2534 15.49447168   226"}}, "geometry": {"type": "Point", "coordinates": [94.08121182492287, -47.811547352266615]}}, {"type": "Feature", "properties": {"norad_id": 65729, "name": "DRAGONFLY", "group": "stations", "lat": 46.44209134688594, "lon": -154.82650840668606, "alt_km": 354.61099589301284, "timestamp": "2025-12-10T04:57:28.381904+00:00", "meta": {"OBJECT_NAME": "DRAGONFLY", "OBJECT_ID": "1998-067XH", "EPOCH": "2025-12-09T11:52:26.095872", "MEAN_MOTION": 15.70499103, "ECCENTRICITY": 0.00065374, "INCLINATION": 51.6245, "RA_OF_ASC_NODE": 152.3636, "ARG_OF_PERICENTER": 255.9884, "MEAN_ANOMALY": 104.0387, "EPHEMERIS_TYPE": 0, "CLASSIFICATION_TYPE": "U", "NORAD_CAT_ID": 65729, "ELEMENT_SET_NO": 999, "REV_AT_EPOCH": 1265, "BSTAR": 0.0014915016, "MEAN_MOTION_DOT": 0.00190953, "MEAN_MOTION_DDOT": 0}, "tle": {"line1": "1 65729U 98067XH  25343.49474648  .00190953  00000+0  14915-2 0  9990", "line2": "2 65729  51.6245 152.3636 0006537 255.9884 104.0387 15.70499103 12658"}}, "geometry": {"type": "Point", "coordinates": [-154.82650840668606, 46.44209134688594]}}, {"type": "Feature", "properties": {"norad_id": 65731, "name": "1998-067XK", "group": "stations", "lat": 25.940289282715018, "lon": -52.594140168378836, "alt_km": 369.44290080757764, "timestamp": "2025-12-10T04:57:28.381914+00:00", "meta": {"OBJECT_NAME": "1998-067XK", "OBJECT_ID": "1998-067XK", "EPOCH": "2025-12-09T11:28:42.048480", "MEAN_MOTION": 15.6489001, "ECCENTRICITY": 0.00052455, "INCLINATION": 51.6282, "RA_OF_ASC_NODE": 153.7695, "ARG_OF_PERICENTER": 225.0581, "MEAN_ANOMALY": 134.9989, "EPHEMERIS_TYPE": 0, "CLASSIFICATION_TYPE": "U", "NORAD_CAT_ID": 65731, "ELEMENT_SET_NO": 999, "REV_AT_EPOCH": 1263, "BSTAR": 0.0011288356, "MEAN_MOTION_DOT": 0.00113689, "MEAN_MOTION_DDOT": 0}, "tle": {"line1": "1 65731U 98067XK  25343.47826445  .00113689  00000+0  11288-2 0  9998", "line2": "2 65731  51.6282 153.7695 0005245 225.0581 134.9989 15.64890010 12632"}}, "geometry": {"type": "Point", "coordinates": [-52.594140168378836, 25.940289282715018]}}, {"type": "Feature", "properties": {"norad_id": 65732, "name": "RSP-03", "group": "stations", "lat": 51.50331452713587, "lon": -115.6576596734255, "alt_km": 361.37515184964286, "timestamp": "2025-12-10T04:57:28.381924+00:00", "meta": {"OBJECT_NAME": "RSP-03", "OBJECT_ID": "1998-067XL", "EPOCH": "2025-12-09T17:51:10.941696", "MEAN_MOTION": 15.67593888, "ECCENTRICITY": 0.0006023, "INCLINATION": 51.6263, "RA_OF_ASC_NODE": 151.784, "ARG_OF_PERICENTER": 230.5682, "MEAN_ANOMALY": 129.4781, "EPHEMERIS_TYPE": 0, "CLASSIFICATION_TYPE": "U", "NORAD_CAT_ID": 65732, "ELEMENT_SET_NO": 999, "REV_AT_EPOCH": 1269, "BSTAR": 0.0013107, "MEAN_MOTION_DOT": 0.00147964, "MEAN_MOTION_DDOT": 0}, "tle": {"line1": "1 65732U 98067XL  25343.74387664  .00147964  00000+0  13107-2 0  9999", "line2": "2 65732  51.6263 151.7840 0006023 230.5682 129.4781 15.67593888 12691"}}, "geometry": {"type": "Point", "coordinates": [-115.6576596734255, 51.50331452713587]}}, {"type": "Feature", "properties": {"norad_id": 65733, "name": "GHS-01", "group": "stations", "lat": -32.78747476637298, "lon": 117.52242428330156, "alt_km": 350.376683708012, "timestamp": "2025-12-10T04:57:28.381935+00:00", "meta": {"OBJECT_NAME": "GHS-01", "OBJECT_ID": "1998-067XM", "EPOCH": "2025-12-09T18:28:18.827040", "MEAN_MOTION": 15.73188946, "ECCENTRICITY": 0.0006938, "INCLINATION": 51.6282, "RA_OF_ASC_NODE": 150.4557, "ARG_OF_PERICENTER": 260.0742, "MEAN_ANOMALY": 99.9474, "EPHEMERIS_TYPE": 0, "CLASSIFICATION_TYPE": "U", "NORAD_CAT_ID": 65733, "ELEMENT_SET_NO": 999, "REV_AT_EPOCH": 1271, "BSTAR": 0.0015642, "MEAN_MOTION_DOT": 0.00225395, "MEAN_MOTION_DDOT": 0}, "tle": {"line1": "1 65733U 98067XM  25343.76966235  .00225395  00000+0  15642-2 0  9990", "line2": "2 65733  51.6282 150.4557 0006938 260.0742  99.9474 15.73188946 12719"}}, "geometry": {"type": "Point", "coordinates": [117.52242428330156, -32.78747476637298]}}, {"type": "Feature", "properties": {"norad_id": 65941, "name": "YOTSUBA-KULOVER", "group": "stations", "lat": -27.772381609152134, "lon": 128.04038621994997, "alt_km": 394.4371000173669, "timestamp": "2025-12-10T04:57:28.381947+00:00", "meta": {"OBJECT_NAME": "YOTSUBA-KULOVER", "OBJECT_ID": "1998-067XN", "EPOCH": "2025-12-09T12:11:24.743328", "MEAN_MOTION": 15.58849812, "ECCENTRICITY": 0.00016122, "INCLINATION": 51.6274, "RA_OF_ASC_NODE": 156.2142, "ARG_OF_PERICENTER": 216.6617, "MEAN_ANOMALY": 143.4266, "EPHEMERIS_TYPE": 0, "CLASSIFICATION_TYPE": "U", "NORAD_CAT_ID": 65941, "ELEMENT_SET_NO": 999, "REV_AT_EPOCH": 935, "BSTAR": 0.0010220852, "MEAN_MOTION_DOT": 0.0008095, "MEAN_MOTION_DDOT": 0}, "tle": {"line1": "1 65941U 98067XN  25343.50792527  .00080950  00000+0  10221-2 0  9998", "line2": "2 65941  51.6274 156.2142 0001612 216.6617 143.4266 15.58849812  9356"}}, "geometry": {"type": "Point", "coordinates": [128.04038621994997, -27.772381609152134]}}, {"type": "Feature", "properties": {"norad_id": 65942, "name": "BOTAN", "group": "stations", "lat": -50.925919977982126, "lon": 49.48127990879172, "alt_km": 384.4675693701656, "timestamp": "2025-12-10T04:57:28.381958+00:00", "meta": {"OBJECT_NAME": "BOTAN", "OBJECT_ID": "1998-067XP", "EPOCH": "2025-12-09T12:29:10.787136", "MEAN_MOTION": 15.61959609, "ECCENTRICITY": 0.00035005, "INCLINATION": 51.628, "RA_OF_ASC_NODE": 155.5477, "ARG_OF_PERICENTER": 212.819, "MEAN_ANOMALY": 147.2587, "EPHEMERIS_TYPE": 0, "CLASSIFICATION_TYPE": "U", "NORAD_CAT_ID": 65942, "ELEMENT_SET_NO": 999, "REV_AT_EPOCH": 936, "BSTAR": 0.00138053, "MEAN_MOTION_DOT": 0.00124109, "MEAN_MOTION_DDOT": 0}, "tle": {"line1": "1 65942U 98067XP  25343.52026374  .00124109  00000+0  13805-2 0  9997", "line2": "2 65942  51.6280 155.5477 0003500 212.8190 147.2587 15.61959609  9368"}}, "geometry": {"type": "Point", "coordinates": [49.48127990879172, -50.925919977982126]}}, {"type": "Feature", "properties": {"norad_id": 65943, "name": "E-KAGAKU-1", "group": "stations", "lat": -28.116021438237055, "lon": 127.66279340624563, "alt_km": 396.0207391456024, "timestamp": "2025-12-10T04:57:28.381969+00:00", "meta": {"OBJECT_NAME": "E-KAGAKU-1", "OBJECT_ID": "1998-067XQ", "EPOCH": "2025-12-08T17:43:35.861664", "MEAN_MOTION": 15.58651727, "ECCENTRICITY": 0.00029774, "INCLINATION": 51.6297, "RA_OF_ASC_NODE": 160.0822, "ARG_OF_PERICENTER": 178.8942, "MEAN_ANOMALY": 181.2057, "EPHEMERIS_TYPE": 0, "CLASSIFICATION_TYPE": "U", "NORAD_CAT_ID": 65943, "ELEMENT_SET_NO": 999, "REV_AT_EPOCH": 923, "BSTAR": 0.00085624806, "MEAN_MOTION_DOT": 0.00067115, "MEAN_MOTION_DDOT": 0}, "tle": {"line1": "1 65943U 98067XQ  25342.73860951  .00067115  00000+0  85625-3 0  9990", "line2": "2 65943  51.6297 160.0822 0002977 178.8942 181.2057 15.58651727  9237"}}, "geometry": {"type": "Point", "coordinates": [127.66279340624563, -28.116021438237055]}}]}